H1 CPF  1  MCC 2022  4 20 15  6101 larets
H2  0304206 5557    27944 2022 04 19 23 45 00 2022 04 24 23 57 00   180 1 1  0 0 0
H9
10 0 59692 85500.000000 0     -1011884.245       522044.012     -6985603.115
10 0 59692 85680.000000 0       110191.689      1288548.587     -6958716.938
10 0 59692 85860.000000 0      1247432.481      1979056.791     -6679736.781
10 0 59692 86040.000000 0      2356585.562      2568856.860     -6158615.391
10 0 59692 86220.000000 0      3394724.900      3037913.453     -5413982.233
10 0 59693     0.000000 0      4320883.412      3371550.201     -4472548.187
10 0 59693   180.000000 0      5097669.587      3560925.862     -3368232.594
10 0 59693   360.000000 0      5692805.737      3603279.563     -2141012.841
10 0 59693   540.000000 0      6080515.159      3501930.407      -835523.552
10 0 59693   720.000000 0      6242688.897      3266020.659       500556.072
10 0 59693   900.000000 0      6169763.619      2910006.273      1818265.578
10 0 59693  1080.000000 0      5861254.543      2452917.504      3069203.271
10 0 59693  1260.000000 0      5325908.552      1917426.178      4207361.659
10 0 59693  1440.000000 0      4581461.425      1328764.428      5190870.147
10 0 59693  1620.000000 0      3654018.978       713555.395      5983562.943
10 0 59693  1800.000000 0      2577092.180        98615.402      6556318.099
10 0 59693  1980.000000 0      1390336.188      -490211.476      6888110.415
10 0 59693  2160.000000 0       138055.409     -1029138.221      6966765.825
10 0 59693  2340.000000 0     -1132479.585     -1497400.416      6789393.383
10 0 59693  2520.000000 0     -2372834.992     -1878064.016      6362482.952
10 0 59693  2700.000000 0     -3535272.246     -2158644.583      5701676.713
10 0 59693  2880.000000 0     -4574612.945     -2331524.131      4831225.653
10 0 59693  3060.000000 0     -5450041.951     -2394151.520      3783117.704
10 0 59693  3240.000000 0     -6126760.850     -2349010.035      2595905.025
10 0 59693  3420.000000 0     -6577423.280     -2203357.219      1313274.957
10 0 59693  3600.000000 0     -6783285.438     -1968751.053       -17595.429
10 0 59693  3780.000000 0     -6734998.760     -1660379.338     -1347832.311
10 0 59693  3960.000000 0     -6433004.941     -1296231.054     -2628719.337
10 0 59693  4140.000000 0     -5887515.495      -896159.008     -3813524.212
10 0 59693  4320.000000 0     -5118090.561      -480884.602     -4859216.867
10 0 59693  4500.000000 0     -4152849.200       -70994.780     -5728009.925
10 0 59693  4680.000000 0     -3027360.252       314016.164     -6388666.783
10 0 59693  4860.000000 0     -1783277.723       656616.618     -6817540.852
10 0 59693  5040.000000 0      -466786.660       941984.954     -6999336.384
10 0 59693  5220.000000 0       873085.361      1158612.900     -6927585.734
10 0 59693  5400.000000 0      2186239.485      1298747.568     -6604852.061
10 0 59693  5580.000000 0      3423326.316      1358662.955     -6042653.814
10 0 59693  5760.000000 0      4537559.523      1338751.450     -5261099.579
10 0 59693  5940.000000 0      5486469.429      1243432.138     -4288244.568
10 0 59693  6120.000000 0      6233545.983      1080878.738     -3159166.576
10 0 59693  6300.000000 0      6749700.213       862572.399     -1914771.701
10 0 59693  6480.000000 0      7014478.867       602695.352      -600354.745
10 0 59693  6660.000000 0      7016957.669       317388.853       736046.543
10 0 59693  6840.000000 0      6756256.697        23911.947      2045433.864
10 0 59693  7020.000000 0      6241644.088      -260259.331      3279695.669
10 0 59693  7200.000000 0      5492207.288      -518343.443      4393432.770
10 0 59693  7380.000000 0      4536113.296      -735124.582      5345672.557
10 0 59693  7560.000000 0      3409497.193      -897740.143      6101403.089
10 0 59693  7740.000000 0      2155035.653      -996341.620      6632861.463
10 0 59693  7920.000000 0       820280.316     -1024601.852      6920540.181
10 0 59693  8100.000000 0      -544184.851      -980047.303      6953885.166
10 0 59693  8280.000000 0     -1886687.122      -864200.586      6731664.437
10 0 59693  8460.000000 0     -3156436.938      -682528.395      6262009.748
10 0 59693  8640.000000 0     -4305468.104      -444195.350      5562135.538
10 0 59693  8820.000000 0     -5290488.275      -161634.512      4657734.072
10 0 59693  9000.000000 0     -6074564.354       150049.679      3582048.696
10 0 59693  9180.000000 0     -6628566.003       473822.025      2374653.118
10 0 59693  9360.000000 0     -6932305.203       791568.177      1079978.534
10 0 59693  9540.000000 0     -6975313.651      1085013.567      -254363.473
10 0 59693  9720.000000 0     -6757210.236      1336661.568     -1579391.027
10 0 59693  9900.000000 0     -6287638.676      1530700.063     -2846605.637
10 0 59693 10080.000000 0     -5585791.901      1653831.372     -4009806.802
10 0 59693 10260.000000 0     -4679545.748      1695979.875     -5026788.119
10 0 59693 10440.000000 0     -3604265.300      1650843.755     -5860836.370
10 0 59693 10620.000000 0     -2401359.711      1516271.006     -6481989.911
10 0 59693 10800.000000 0     -1116656.278      1294447.860     -6868032.533
10 0 59693 10980.000000 0       201341.271       991897.407     -7005203.320
10 0 59693 11160.000000 0      1503241.286       619291.709     -6888625.067
10 0 59693 11340.000000 0      2740560.028       191083.829     -6522460.505
10 0 59693 11520.000000 0      3867479.120      -275032.812     -5919781.608
10 0 59693 11700.000000 0      4842510.613      -758822.059     -5102155.241
10 0 59693 11880.000000 0      5630025.645     -1238341.291     -4098951.759
10 0 59693 12060.000000 0      6201598.220     -1690890.755     -2946372.673
10 0 59693 12240.000000 0      6537100.822     -2094039.872     -1686209.719
10 0 59693 12420.000000 0      6625495.757     -2426686.481      -364364.531
10 0 59693 12600.000000 0      6465272.654     -2670095.687       970823.314
10 0 59693 12780.000000 0      6064498.829     -2808863.711      2270376.975
10 0 59693 12960.000000 0      5440465.773     -2831752.696      3486533.520
10 0 59693 13140.000000 0      4618943.822     -2732348.024      4574555.361
10 0 59693 13320.000000 0      3633089.532     -2509501.620      5494416.088
10 0 59693 13500.000000 0      2522062.649     -2167543.463      6212297.353
10 0 59693 13680.000000 0      1329418.608     -1716246.210      6701831.255
10 0 59693 13860.000000 0       101359.305     -1170549.624      6945052.259
10 0 59693 14040.000000 0     -1115086.749      -550055.486      6933035.079
10 0 59693 14220.000000 0     -2273882.409       121687.831      6666207.448
10 0 59693 14400.000000 0     -3331738.269       818087.118      6154337.169
10 0 59693 14580.000000 0     -4249752.052      1510562.512      5416192.344
10 0 59693 14760.000000 0     -4994876.909      2169724.655      4478877.369
10 0 59693 14940.000000 0     -5541159.591      2766628.528      3376852.738
10 0 59693 15120.000000 0     -5870690.109      3274048.429      2150666.077
10 0 59693 15300.000000 0     -5974222.598      3667715.103       845439.337
10 0 59693 15480.000000 0     -5851432.849      3927453.381      -490838.070
10 0 59693 15660.000000 0     -5510793.598      4038155.176     -1809131.678
10 0 59693 15840.000000 0     -4969079.683      3990540.333     -3061218.369
10 0 59693 16020.000000 0     -4250526.250      3781662.658     -4201489.096
10 0 59693 16200.000000 0     -3385698.256      3415141.051     -5188609.889
10 0 59693 16380.000000 0     -2410144.498      2901116.596     -5986978.162
10 0 59693 16560.000000 0     -1362910.666      2255949.041     -6567936.738
10 0 59693 16740.000000 0      -284972.384      1501669.386     -6910719.521
10 0 59693 16920.000000 0       782343.395       665217.550     -7003112.403
10 0 59693 17100.000000 0      1798898.725      -222505.686     -6841836.570
10 0 59693 17280.000000 0      2727210.133     -1127749.740     -6432649.408
10 0 59693 17460.000000 0      3533793.988     -2015156.626     -5790162.057
10 0 59693 17640.000000 0      4190360.321     -2849101.782     -4937379.899
10 0 59693 17820.000000 0      4674821.787     -3595102.680     -3904960.205
10 0 59693 18000.000000 0      4972072.277     -4221239.516     -2730188.547
10 0 59693 18180.000000 0      5074506.919     -4699530.717     -1455695.797
10 0 59693 18360.000000 0      4982249.629     -5007201.029      -127940.852
10 0 59693 18540.000000 0      4703061.968     -5127774.064      1204491.300
10 0 59693 18720.000000 0      4251928.505     -5051921.439      2492707.079
10 0 59693 18900.000000 0      3650333.581     -4778017.239      3689352.945
10 0 59693 19080.000000 0      2925267.219     -4312367.782      4750409.040
10 0 59693 19260.000000 0      2108011.345     -3669100.391      5636848.028
10 0 59693 19440.000000 0      1232771.817     -2869719.495      6316088.644
10 0 59693 19620.000000 0       335222.182     -1942353.123      6763189.194
10 0 59693 19800.000000 0      -548970.572      -920729.676      6961742.642
10 0 59693 19980.000000 0     -1385574.965       157074.360      6904459.468
10 0 59693 20160.000000 0     -2143130.053      1250072.656      6593426.137
10 0 59693 20340.000000 0     -2794141.079      2315941.843      6040032.701
10 0 59693 20520.000000 0     -3316094.540      3312676.093      5264573.083
10 0 59693 20700.000000 0     -3692259.902      4200267.893      4295524.626
10 0 59693 20880.000000 0     -3912247.039      4942350.301      3168517.863
10 0 59693 21060.000000 0     -3972291.312      5507729.743      1925021.846
10 0 59693 21240.000000 0     -3875249.835      5871730.158       610788.934
10 0 59693 21420.000000 0     -3630311.765      6017282.270      -725873.547
10 0 59693 21600.000000 0     -3252436.538      5935702.630     -2035939.984
10 0 59693 21780.000000 0     -2761543.492      5627109.776     -3271524.013
10 0 59693 21960.000000 0     -2181503.047      5100465.002     -4387656.700
99
